[{"OBJECT_NAME":"FLOCK 4G-31","OBJECT_ID":"2025-009AV","EPOCH":"2026-03-09T17:55:44.365728","MEAN_MOTION":15.26963037,"ECCENTRICITY":5.975e-5,"INCLINATION":97.4007,"RA_OF_ASC_NODE":151.027,"ARG_OF_PERICENTER":42.5998,"MEAN_ANOMALY":317.5288,"EPHEMERIS_TYPE":0,"CLASSIFICATION_TYPE":"U","NORAD_CAT_ID":62652,"ELEMENT_SET_NO":999,"REV_AT_EPOCH":6372,"BSTAR":0.00048078603,"MEAN_MOTION_DOT":0.00012662,"MEAN_MOTION_DDOT":0},{"OBJECT_NAME":"STARLINK-33941","OBJECT_ID":"2025-089Q","EPOCH":"2026-03-09T22:29:44.540448","MEAN_MOTION":15.27595221,"ECCENTRICITY":0.00027133,"INCLINATION":43.0019,"RA_OF_ASC_NODE":43.9862,"ARG_OF_PERICENTER":287.5994,"MEAN_ANOMALY":72.4561,"EPHEMERIS_TYPE":0,"CLASSIFICATION_TYPE":"U","NORAD_CAT_ID":63765,"ELEMENT_SET_NO":999,"REV_AT_EPOCH":4898,"BSTAR":0.0012558018,"MEAN_MOTION_DOT":0.00034474,"MEAN_MOTION_DDOT":0}]
